ONEWEB-0385             
1 49311U 21090AJ  23304.90587115  .00005022  00000+0  12317-1 0  9991
2 49311  87.9156 105.4155 0002918 104.3652 255.7806 13.20746221104497
ONEWEB-0386             
1 49312U 21090AK  23305.14994222  .00000043  00000+0  74594-4 0  9996
2 49312  87.9151 105.3767 0001944  91.1411 268.9945 13.20769449104537
ONEWEB-0387             
1 49313U 21090AL  23304.90795110 -.00000024  00000+0 -92126-4 0  9997
2 49313  87.9157 105.4725 0001737 103.9992 256.1334 13.20767802103198
ONEWEB-0388             
1 49314U 21090AM  23304.79468501 -.00000889  00000+0 -22537-2 0  9992
2 49314  87.9181 135.9337 0001837  79.7904 280.3436 13.19729542 99875
ONEWEB-0389             
1 50469U 21132A   23305.20013192 -.00000099  00000+0 -28787-3 0  9998
2 50469  87.9260 196.4621 0001815  91.3998 268.7341 13.17648303 93088
ONEWEB-0390             
1 50470U 21132B   23304.74663072  .00000114  00000+0  26036-3 0  9997
2 50470  87.9259 196.5591 0001334  83.5899 276.5385 13.17649593 91731
ONEWEB-0391             
1 50471U 21132C   23304.74874266  .00000077  00000+0  16538-3 0  9991
2 50471  87.9259 196.5291 0001779  83.3166 276.8168 13.17649528 91737
ONEWEB-0392             
1 50472U 21132D   23304.93015027 -.00000440  00000+0 -11670-2 0  9992
2 50472  87.9244 196.5270 0001778  85.5172 274.6162 13.17650929 91792
